{"fetched_at":"2026-03-30T06:02:59Z","count":15439,"tles":[{"name":"KUIPER-00218","line1":"1 67780U 26030S   26087.83954262  .00030212  00000+0  85979-3 0  9999","line2":"2 67780  51.8832 126.9357 0007429 108.1295 252.0501 15.35847374  8031","category":"Other"}]}